[
    {
        "Altitude(m)": 604221.2158320635,
        "Argument of Periapsis(deg)": 0.0,
        "Eccentricity": 0.0,
        "Inclination(deg)": 60.0,
        "Latitude(deg)": 14.117311462496806,
        "Longitude(deg)": 23.334123571411137,
        "Mean Anomaly(deg)": 16.363600000000012,
        "RAAN(deg)": 114.99999999999999,
        "Satellite Name": "Test1 507",
        "Satellite Number": 507,
        "Semi-Major Axis(m)": 6980739.136638005,
        "Time(s)": 0
    },
    {
        "Altitude(m)": 604235.3572536161,
        "Argument of Periapsis(deg)": 0.00010418945913296404,
        "Eccentricity": 0.0,
        "Inclination(deg)": 60.0,
        "Latitude(deg)": 14.651708833971037,
        "Longitude(deg)": 23.622569406598643,
        "Mean Anomaly(deg)": 16.983706145461838,
        "RAAN(deg)": 114.99957995086024,
        "Satellite Name": "Test1 507",
        "Satellite Number": 507,
        "Semi-Major Axis(m)": 6980739.136638005,
        "Time(s)": 10
    },
    {
        "Altitude(m)": 604252.3957771993,
        "Argument of Periapsis(deg)": 0.0002083789182659281,
        "Eccentricity": 0.0,
        "Inclination(deg)": 60.0,
        "Latitude(deg)": 15.185616394751959,
        "Longitude(deg)": 23.91261824449888,
        "Mean Anomaly(deg)": 17.603812290923667,
        "RAAN(deg)": 114.9991599017205,
        "Satellite Name": "Test1 507",
        "Satellite Number": 507,
        "Semi-Major Axis(m)": 6980739.136638005,
        "Time(s)": 20
    },
    {
        "Altitude(m)": 604272.2995738169,
        "Argument of Periapsis(deg)": 0.00031256837739889213,
        "Eccentricity": 0.0,
        "Inclination(deg)": 60.0,
        "Latitude(deg)": 15.71901284034878,
        "Longitude(deg)": 24.204337597261933,
        "Mean Anomaly(deg)": 18.223918436385496,
        "RAAN(deg)": 114.99873985258075,
        "Satellite Name": "Test1 507",
        "Satellite Number": 507,
        "Semi-Major Axis(m)": 6980739.136638005,
        "Time(s)": 30
    },
    {
        "Altitude(m)": 604295.0355397358,
        "Argument of Periapsis(deg)": 0.0004167578365318562,
        "Eccentricity": 0.0,
        "Inclination(deg)": 60.0,
        "Latitude(deg)": 16.25187653055533,
        "Longitude(deg)": 24.497796499659188,
        "Mean Anomaly(deg)": 18.84402458184732,
        "RAAN(deg)": 114.99831980344102,
        "Satellite Name": "Test1 507",
        "Satellite Number": 507,
        "Semi-Major Axis(m)": 6980739.136638005,
        "Time(s)": 40
    },
    {
        "Altitude(m)": 604320.5693154179,
        "Argument of Periapsis(deg)": 0.0005209472956648203,
        "Eccentricity": 0.0,
        "Inclination(deg)": 60.0,
        "Latitude(deg)": 16.784185473411828,
        "Longitude(deg)": 24.793064544664254,
        "Mean Anomaly(deg)": 19.46413072730915,
        "RAAN(deg)": 114.99789975430127,
        "Satellite Name": "Test1 507",
        "Satellite Number": 507,
        "Semi-Major Axis(m)": 6980739.136638005,
        "Time(s)": 50
    },
    {
        "Altitude(m)": 604348.8653050597,
        "Argument of Periapsis(deg)": 0.0006251367547977843,
        "Eccentricity": 0.0,
        "Inclination(deg)": 60.0,
        "Latitude(deg)": 17.31591730868631,
        "Longitude(deg)": 25.09021243276162,
        "Mean Anomaly(deg)": 20.084236872770976,
        "RAAN(deg)": 114.99747970516154,
        "Satellite Name": "Test1 507",
        "Satellite Number": 507,
        "Semi-Major Axis(m)": 6980739.136638005,
        "Time(s)": 60
    },
    {
        "Altitude(m)": 604379.8866966856,
        "Argument of Periapsis(deg)": 0.0007293262139307483,
        "Eccentricity": 0.0,
        "Inclination(deg)": 60.0,
        "Latitude(deg)": 17.847049290849682,
        "Longitude(deg)": 25.389312522134592,
        "Mean Anomaly(deg)": 20.704343018232805,
        "RAAN(deg)": 114.99705965602179,
        "Satellite Name": "Test1 507",
        "Satellite Number": 507,
        "Semi-Major Axis(m)": 6980739.136638005,
        "Time(s)": 70
    },
    {
        "Altitude(m)": 604413.5954828303,
        "Argument of Periapsis(deg)": 0.0008335156730637124,
        "Eccentricity": 0.0,
        "Inclination(deg)": 60.0,
        "Latitude(deg)": 18.377558271517827,
        "Longitude(deg)": 25.69043786688357,
        "Mean Anomaly(deg)": 21.32444916369466,
        "RAAN(deg)": 114.99663960688207,
        "Satellite Name": "Test1 507",
        "Satellite Number": 507,
        "Semi-Major Axis(m)": 6980739.136638005,
        "Time(s)": 80
    },
    {
        "Altitude(m)": 604449.9524817846,
        "Argument of Periapsis(deg)": 0.0009377051321966765,
        "Eccentricity": 0.0,
        "Inclination(deg)": 60.0,
        "Latitude(deg)": 18.907420681341144,
        "Longitude(deg)": 25.9936627690434,
        "Mean Anomaly(deg)": 21.944555309156485,
        "RAAN(deg)": 114.99621955774231,
        "Satellite Name": "Test1 507",
        "Satellite Number": 507,
        "Semi-Major Axis(m)": 6980739.136638005,
        "Time(s)": 90
    },
    {
        "Altitude(m)": 604488.9173593979,
        "Argument of Periapsis(deg)": 0.0010418945913296407,
        "Eccentricity": 0.0,
        "Inclination(deg)": 60.0,
        "Latitude(deg)": 19.436612511313754,
        "Longitude(deg)": 26.299063331550176,
        "Mean Anomaly(deg)": 22.564661454618314,
        "RAAN(deg)": 114.99579950860259,
        "Satellite Name": "Test1 507",
        "Satellite Number": 507,
        "Semi-Major Axis(m)": 6980739.136638005,
        "Time(s)": 100
    },
    {
        "Altitude(m)": 604530.4486514155,
        "Argument of Periapsis(deg)": 0.0011460840504626045,
        "Eccentricity": 0.0,
        "Inclination(deg)": 60.0,
        "Latitude(deg)": 19.965109293472935,
        "Longitude(deg)": 26.606716499301182,
        "Mean Anomaly(deg)": 23.18476760008014,
        "RAAN(deg)": 114.99537945946282,
        "Satellite Name": "Test1 507",
        "Satellite Number": 507,
        "Semi-Major Axis(m)": 6980739.136638005,
        "Time(s)": 110
    },
    {
        "Altitude(m)": 604574.50378632,
        "Argument of Periapsis(deg)": 0.0012502735095955685,
        "Eccentricity": 0.0,
        "Inclination(deg)": 60.0,
        "Latitude(deg)": 20.49288608096751,
        "Longitude(deg)": 26.91670061407517,
        "Mean Anomaly(deg)": 23.80487374554197,
        "RAAN(deg)": 114.9949594103231,
        "Satellite Name": "Test1 507",
        "Satellite Number": 507,
        "Semi-Major Axis(m)": 6980739.136638005,
        "Time(s)": 120
    },
    {
        "Altitude(m)": 604621.0391087392,
        "Argument of Periapsis(deg)": 0.0013544629687285324,
        "Eccentricity": 0.0,
        "Inclination(deg)": 60.0,
        "Latitude(deg)": 21.019917427464264,
        "Longitude(deg)": 27.229095970453944,
        "Mean Anomaly(deg)": 24.424979891003794,
        "RAAN(deg)": 114.99453936118334,
        "Satellite Name": "Test1 507",
        "Satellite Number": 507,
        "Semi-Major Axis(m)": 6980739.136638005,
        "Time(s)": 130
    },
    {
        "Altitude(m)": 604670.0099033045,
        "Argument of Periapsis(deg)": 0.0014586524278614966,
        "Eccentricity": 0.0,
        "Inclination(deg)": 60.0,
        "Latitude(deg)": 21.546177365861443,
        "Longitude(deg)": 27.543983859885994,
        "Mean Anomaly(deg)": 25.045086036465623,
        "RAAN(deg)": 114.99411931204362,
        "Satellite Name": "Test1 507",
        "Satellite Number": 507,
        "Semi-Major Axis(m)": 6980739.136638005,
        "Time(s)": 140
    },
    {
        "Altitude(m)": 604721.370419029,
        "Argument of Periapsis(deg)": 0.0015628418869944607,
        "Eccentricity": 0.0,
        "Inclination(deg)": 60.0,
        "Latitude(deg)": 22.071639386284566,
        "Longitude(deg)": 27.861447128649132,
        "Mean Anomaly(deg)": 25.66519218192745,
        "RAAN(deg)": 114.99369926290385,
        "Satellite Name": "Test1 507",
        "Satellite Number": 507,
        "Semi-Major Axis(m)": 6980739.136638005,
        "Time(s)": 150
    },
    {
        "Altitude(m)": 604775.0738941447,
        "Argument of Periapsis(deg)": 0.0016670313461274247,
        "Eccentricity": 0.0,
        "Inclination(deg)": 60.0,
        "Latitude(deg)": 22.596276413332077,
        "Longitude(deg)": 28.181570736846798,
        "Mean Anomaly(deg)": 26.285298327389278,
        "RAAN(deg)": 114.99327921376414,
        "Satellite Name": "Test1 507",
        "Satellite Number": 507,
        "Semi-Major Axis(m)": 6980739.136638005,
        "Time(s)": 160
    },
    {
        "Altitude(m)": 604831.0725814095,
        "Argument of Periapsis(deg)": 0.0017712208052603888,
        "Eccentricity": 0.0,
        "Inclination(deg)": 60.0,
        "Latitude(deg)": 23.12006078253644,
        "Longitude(deg)": 28.504440805567434,
        "Mean Anomaly(deg)": 26.90540447285113,
        "RAAN(deg)": 114.99285916462436,
        "Satellite Name": "Test1 507",
        "Satellite Number": 507,
        "Semi-Major Axis(m)": 6980739.136638005,
        "Time(s)": 170
    },
    {
        "Altitude(m)": 604889.3177738615,
        "Argument of Periapsis(deg)": 0.001875410264393353,
        "Eccentricity": 0.0,
        "Inclination(deg)": 60.0,
        "Latitude(deg)": 23.642964216013983,
        "Longitude(deg)": 28.830145177955004,
        "Mean Anomaly(deg)": 27.525510618312957,
        "RAAN(deg)": 114.99243911548463,
        "Satellite Name": "Test1 507",
        "Satellite Number": 507,
        "Semi-Major Axis(m)": 6980739.136638005,
        "Time(s)": 180
    },
    {
        "Altitude(m)": 604949.7598310038,
        "Argument of Periapsis(deg)": 0.0019795997235263173,
        "Eccentricity": 0.0,
        "Inclination(deg)": 60.0,
        "Latitude(deg)": 24.164957797268023,
        "Longitude(deg)": 29.158773981311892,
        "Mean Anomaly(deg)": 28.14561676377479,
        "RAAN(deg)": 114.99201906634488,
        "Satellite Name": "Test1 507",
        "Satellite Number": 507,
        "Semi-Major Axis(m)": 6980739.136638005,
        "Time(s)": 190
    }
]